OBJECT_NAME,OBJECT_ID,EPOCH,MEAN_MOTION,ECCENTRICITY,INCLINATION,RA_OF_ASC_NODE,ARG_OF_PERICENTER,MEAN_ANOMALY,EPHEMERIS_TYPE,CLASSIFICATION_TYPE,NORAD_CAT_ID,ELEMENT_SET_NO,REV_AT_EPOCH,BSTAR,MEAN_MOTION_DOT,MEAN_MOTION_DDOT
ONEWEB-0365,2021-090N,2026-06-27T21:02:42.309312,13.19725254,.00019244,87.9185,302.8376,103.0184,257.1163,0,U,49291,999,22783,-.32980969E-3,-.119E-5,0
ONEWEB-0366,2021-090P,2026-06-27T20:44:11.702976,13.14502798,.00020022,87.8970,287.5787,99.7019,260.4337,0,U,49292,999,22896,-.77008661E-3,-.273E-5,0
ONEWEB-0367,2021-090Q,2026-06-27T18:27:32.086368,13.20771469,.00020457,87.9197,272.3321,105.4257,254.7102,0,U,49293,999,23122,-.14273224E-4,.7E-7,0
ONEWEB-0368,2021-090R,2026-06-27T19:39:02.457216,13.20770402,.00013032,87.9186,272.3314,97.9415,262.1867,0,U,49294,999,23238,-.87432165E-4,-.23E-6,0
ONEWEB-0369,2021-090S,2026-06-27T20:55:53.011776,13.19725650,.00018266,87.9175,302.8453,100.8919,259.2420,0,U,49295,999,22782,-.38802158E-4,-.3E-7,0
ONEWEB-0370,2021-090T,2026-06-27T18:40:51.525696,13.20771285,.00022714,87.9197,272.3297,101.4015,258.7373,0,U,49296,999,23126,-.82634329E-4,-.21E-6,0
ONEWEB-0371,2021-090U,2026-06-27T21:07:13.905120,13.19724252,.00019591,87.9186,302.8368,102.7337,257.4015,0,U,49297,999,22786,-.2033104E-3,-.68E-6,0
ONEWEB-0372,2021-090V,2026-06-27T18:26:06.462240,13.20772768,.00019984,87.9197,272.3335,100.6482,259.4876,0,U,49298,999,23123,-.52012655E-4,-.8E-7,0
ONEWEB-0373,2021-090W,2026-06-27T19:02:40.459776,13.20772124,.00020819,87.9194,272.3285,98.2605,261.8765,0,U,49299,999,23242,-.20239474E-3,-.69E-6,0
ONEWEB-0374,2021-090X,2026-06-27T20:25:54.811776,13.14525373,.00017018,87.8977,287.5723,86.0247,274.1077,0,U,49300,999,22896,-.12187999E-1,-.4505E-4,0
ONEWEB-0375,2021-090Y,2026-06-27T18:45:42.619392,13.20771498,.00020632,87.9195,272.3230,82.7878,277.3489,0,U,49301,999,23192,-.17772905E-3,-.59E-6,0
ONEWEB-0376,2021-090Z,2026-06-27T21:04:58.280448,13.19725712,.00018113,87.9185,302.8371,105.7701,254.3631,0,U,49302,999,22786,-.80365897E-4,-.19E-6,0
ONEWEB-0377,2021-090AA,2026-06-27T18:26:29.829120,13.20772108,.00021303,87.9196,272.3272,94.0848,266.0528,0,U,49303,999,23191,.14007871E-3,.7E-6,0
ONEWEB-0378,2021-090AB,2026-06-27T18:55:36.397344,13.20770829,.00019489,87.9191,272.3278,96.5148,263.6208,0,U,49304,999,23118,-.28861139E-3,-.104E-5,0
ONEWEB-0379,2021-090AC,2026-06-27T20:19:04.184544,13.14503161,.00018622,87.8973,287.5838,97.4475,262.6867,0,U,49305,999,22896,-.30132975E-4,.2E-7,0
ONEWEB-0380,2021-090AD,2026-06-27T21:00:26.208576,13.19725593,.00020608,87.9177,302.8422,96.0802,264.0566,0,U,49306,999,22783,-.99144888E-4,-.27E-6,0
ONEWEB-0381,2021-090AE,2026-06-27T18:21:27.479232,13.20772512,.00019584,87.9197,272.3328,92.1828,267.9529,0,U,49307,999,23122,.46596754E-4,.32E-6,0
ONEWEB-0382,2021-090AF,2026-06-27T18:02:04.212096,13.20770786,.00018714,87.9196,272.3297,92.3152,267.8195,0,U,49308,999,23121,.15928937E-3,.78E-6,0
ONEWEB-0383,2021-090AG,2026-06-27T20:09:56.443968,13.14501579,.00018175,87.8975,287.5769,97.6962,262.4375,0,U,49309,999,22899,.29849384E-3,.123E-5,0
ONEWEB-0384,2021-090AH,2026-06-27T19:34:19.260480,13.20812977,.0001717,87.9197,272.3606,88.4697,271.6633,0,U,49310,999,23123,-.16547678E-4,.6E-7,0
ONEWEB-0385,2021-090AJ,2026-06-27T19:41:26.935296,13.20773402,.00019222,87.9195,272.3211,94.4816,265.6537,0,U,49311,999,23120,.73800793E-4,.43E-6,0
ONEWEB-0386,2021-090AK,2026-06-27T18:16:36.910848,13.20772431,.00018485,87.9200,272.3242,93.9698,266.1647,0,U,49312,999,23121,-.21480264E-4,.4E-7,0
ONEWEB-0387,2021-090AL,2026-06-27T19:43:52.648032,13.20772712,.000223,87.9186,272.3331,91.4946,268.6443,0,U,49313,999,23122,-.47986478E-4,-.7E-7,0
ONEWEB-0388,2021-090AM,2026-06-27T20:53:36.657888,13.19725396,.00018581,87.9177,302.8412,97.1296,263.0048,0,U,49314,999,22782,.51690641E-4,.34E-6,0
ONEWEB-0389,2021-132A,2026-06-27T21:44:14.000640,13.17650021,.00020225,87.9131,3.7352,80.2823,279.8537,0,U,50469,999,21949,.88407961E-4,.47E-6,0
ONEWEB-0390,2021-132B,2026-06-27T18:07:58.063296,13.17649903,.0002064,87.9133,3.7662,93.0080,267.1288,0,U,50470,999,21947,.77320699E-4,.43E-6,0
ONEWEB-0391,2021-132C,2026-06-27T18:10:23.939328,13.17649559,.00025472,87.9134,3.7756,77.3333,282.8083,0,U,50471,999,21947,-.25002043E-4,.3E-7,0
ONEWEB-0392,2021-132D,2026-06-27T22:32:50.500032,13.17650033,.00020828,87.9141,3.7085,80.1565,279.9802,0,U,50472,999,21953,.1805847E-3,.83E-6,0
ONEWEB-0393,2021-132E,2026-06-27T12:50:50.689824,13.17650636,.00019665,87.9132,3.8050,85.1167,275.0189,0,U,50473,999,21947,.13399245E-3,.65E-6,0
ONEWEB-0394,2021-132F,2026-06-27T20:56:29.889888,13.18688520,.00017489,87.9177,333.3162,91.1643,268.9690,0,U,50474,999,22300,.3256263E-4,.26E-6,0
