ONEWEB-0365             
1 49291U 21090N   26178.87687858 -.00000119  00000+0 -32981-3 0  9996
2 49291  87.9185 302.8376 0001924 103.0184 257.1163 13.19725254227833
ONEWEB-0366             
1 49292U 21090P   26178.86402434 -.00000273  00000+0 -77009-3 0  9992
2 49292  87.8970 287.5787 0002002  99.7019 260.4337 13.14502798228962
ONEWEB-0367             
1 49293U 21090Q   26178.76912137  .00000007  00000+0 -14273-4 0  9997
2 49293  87.9197 272.3321 0002045 105.4257 254.7102 13.20771469231226
ONEWEB-0368             
1 49294U 21090R   26178.81877844 -.00000023  00000+0 -87432-4 0  9995
2 49294  87.9186 272.3314 0001303  97.9415 262.1867 13.20770402232389
ONEWEB-0369             
1 49295U 21090S   26178.87214134 -.00000003  00000+0 -38802-4 0  9994
2 49295  87.9175 302.8453 0001826 100.8919 259.2420 13.19725650227822
ONEWEB-0370             
1 49296U 21090T   26178.77837414 -.00000021  00000+0 -82634-4 0  9998
2 49296  87.9197 272.3297 0002271 101.4015 258.7373 13.20771285231264
ONEWEB-0371             
1 49297U 21090U   26178.88002205 -.00000068  00000+0 -20331-3 0  9999
2 49297  87.9186 302.8368 0001959 102.7337 257.4015 13.19724252227864
ONEWEB-0372             
1 49298U 21090V   26178.76813035 -.00000008  00000+0 -52013-4 0  9995
2 49298  87.9197 272.3335 0001998 100.6482 259.4876 13.20772768231233
ONEWEB-0373             
1 49299U 21090W   26178.79352384 -.00000069  00000+0 -20239-3 0  9995
2 49299  87.9194 272.3285 0002081  98.2605 261.8765 13.20772124232420
ONEWEB-0374             
1 49300U 21090X   26178.85132884 -.00004505  00000+0 -12188-1 0  9997
2 49300  87.8977 287.5723 0001701  86.0247 274.1077 13.14525373228963
ONEWEB-0375             
1 49301U 21090Y   26178.78174328 -.00000059  00000+0 -17773-3 0  9996
2 49301  87.9195 272.3230 0002063  82.7878 277.3489 13.20771498231927
ONEWEB-0376             
1 49302U 21090Z   26178.87845232 -.00000019  00000+0 -80366-4 0  9991
2 49302  87.9185 302.8371 0001811 105.7701 254.3631 13.19725712227861
ONEWEB-0377             
1 49303U 21090AA  26178.76840080  .00000070  00000+0  14008-3 0  9990
2 49303  87.9196 272.3272 0002130  94.0848 266.0528 13.20772108231911
ONEWEB-0378             
1 49304U 21090AB  26178.78861571 -.00000104  00000+0 -28861-3 0  9993
2 49304  87.9191 272.3278 0001948  96.5148 263.6208 13.20770829231184
ONEWEB-0379             
1 49305U 21090AC  26178.84657621  .00000002  00000+0 -30133-4 0  9992
2 49305  87.8973 287.5838 0001862  97.4475 262.6867 13.14503161228968
ONEWEB-0380             
1 49306U 21090AD  26178.87530334 -.00000027  00000+0 -99145-4 0  9993
2 49306  87.9177 302.8422 0002060  96.0802 264.0566 13.19725593227833
ONEWEB-0381             
1 49307U 21090AE  26178.76490138  .00000032  00000+0  46597-4 0  9996
2 49307  87.9197 272.3328 0001958  92.1828 267.9529 13.20772512231226
ONEWEB-0382             
1 49308U 21090AF  26178.75143764  .00000078  00000+0  15929-3 0  9990
2 49308  87.9196 272.3297 0001871  92.3152 267.8195 13.20770786231215
ONEWEB-0383             
1 49309U 21090AG  26178.84023662  .00000123  00000+0  29849-3 0  9992
2 49309  87.8975 287.5769 0001817  97.6962 262.4375 13.14501579228996
ONEWEB-0384             
1 49310U 21090AH  26178.81550070  .00000006  00000+0 -16548-4 0  9993
2 49310  87.9197 272.3606 0001717  88.4697 271.6633 13.20812977231233
ONEWEB-0385             
1 49311U 21090AJ  26178.82045064  .00000043  00000+0  73801-4 0  9992
2 49311  87.9195 272.3211 0001922  94.4816 265.6537 13.20773402231204
ONEWEB-0386             
1 49312U 21090AK  26178.76153832  .00000004  00000+0 -21480-4 0  9993
2 49312  87.9200 272.3242 0001848  93.9698 266.1647 13.20772431231215
ONEWEB-0387             
1 49313U 21090AL  26178.82213713 -.00000007  00000+0 -47986-4 0  9999
2 49313  87.9186 272.3331 0002230  91.4946 268.6443 13.20772712231227
ONEWEB-0388             
1 49314U 21090AM  26178.87056317  .00000034  00000+0  51691-4 0  9996
2 49314  87.9177 302.8412 0001858  97.1296 263.0048 13.19725396227828
ONEWEB-0389             
1 50469U 21132A   26178.90571760  .00000047  00000+0  88408-4 0  9994
2 50469  87.9131   3.7352 0002022  80.2823 279.8537 13.17650021219496
ONEWEB-0390             
1 50470U 21132B   26178.75553314  .00000043  00000+0  77321-4 0  9992
2 50470  87.9133   3.7662 0002064  93.0080 267.1288 13.17649903219475
ONEWEB-0391             
1 50471U 21132C   26178.75722152  .00000003  00000+0 -25002-4 0  9997
2 50471  87.9134   3.7756 0002547  77.3333 282.8083 13.17649559219477
ONEWEB-0392             
1 50472U 21132D   26178.93947338  .00000083  00000+0  18058-3 0  9992
2 50472  87.9141   3.7085 0002082  80.1565 279.9802 13.17650033219536
ONEWEB-0393             
1 50473U 21132E   26178.53530891  .00000065  00000+0  13399-3 0  9994
2 50473  87.9132   3.8050 0001966  85.1167 275.0189 13.17650636219470
ONEWEB-0394             
1 50474U 21132F   26178.87256817  .00000026  00000+0  32563-4 0  9997
2 50474  87.9177 333.3162 0001748  91.1643 268.9690 13.18688520223005
